{"spkid": "54373544", "covariance": {"epoch": "2460267.5", "labels": ["e", "q", "tp", "node", "peri", "i"], "data": [["8.321680373711429E-13", "-6.164786733793562E-13", "-1.910348917590682E-10", "-2.986152233079818E-11", "-1.123422616716791E-10", "8.722215769785198E-11"], ["-6.164786733793562E-13", "4.575122572807856E-13", "1.40129439708432E-10", "2.177358574965715E-11", "8.232105930267826E-11", "-6.454426233738103E-11"], ["-1.910348917590682E-10", "1.40129439708432E-10", "4.838520476332351E-8", "7.405435001699577E-9", "2.908382175627247E-8", "-1.954027829851851E-8"], ["-2.986152233079818E-11", "2.177358574965715E-11", "7.405435001699577E-9", "1.564674665818225E-9", "4.05631088429953E-9", "-3.480870817923777E-9"], ["-1.123422616716791E-10", "8.232105930267826E-11", "2.908382175627247E-8", "4.05631088429953E-9", "1.792429833596326E-8", "-1.111647439010089E-8"], ["8.722215769785198E-11", "-6.454426233738103E-11", "-1.954027829851851E-8", "-3.480870817923777E-9", "-1.111647439010089E-8", "9.834849700619221E-9"]], "elements": [{"sigma": 9.12232447006322e-07, "name": "e", "title": "eccentricity", "value": ".09214659579163476", "units": null, "label": "e"}, {"label": "q", "title": "perihelion distance", "value": ".935944061830248", "units": "au", "sigma": 6.76396523705426e-07, "name": "q"}, {"sigma": 0.000219966371891986, "name": "tp", "units": "TDB", "title": "time of perihelion passage", "value": "2460221.505980493648", "label": "tp"}, {"label": "node", "title": "longitude of the ascending node", "value": "97.0439811980507", "units": "deg", "name": "om", "sigma": 3.95559687761307e-05}, {"title": "argument of perihelion", "value": "277.0120538844039", "units": "deg", "name": "w", "sigma": 0.000133881657951951, "label": "peri"}, {"sigma": 9.91708107288592e-05, "name": "i", "title": "inclination", "value": "15.3946705527295", "units": "deg", "label": "i"}]}, "elements": [{"units": null, "title": "eccentricity", "value": ".0921194467782737", "sigma": "9.1381E-7", "name": "e", "label": "e"}, {"units": "au", "value": "1.031238509302614", "title": "semi-major axis", "name": "a", "sigma": "2.9016E-7", "label": "a"}, {"label": "q", "name": "q", "sigma": "6.8095E-7", "title": "perihelion distance", "value": ".9362413883292059", "units": "au"}, {"sigma": "9.9184E-5", "name": "i", "title": "inclination; angle with respect to x-y ecliptic plane", "value": "15.39332997057484", "units": "deg", "label": "i"}, {"name": "om", "sigma": "3.8954E-5", "value": "97.01242866866021", "title": "longitude of the ascending node", "units": "deg", "label": "node"}, {"sigma": ".00013229", "name": "w", "units": "deg", "value": "276.9908787437045", "title": "argument of perihelion", "label": "peri"}, {"title": "mean anomaly", "value": "201.78134766532", "units": "deg", "sigma": ".00020182", "name": "ma", "label": "M"}, {"value": "2461368.609513255520", "title": "time of perihelion passage", "units": "TDB", "sigma": ".00028371", "name": "tp", "label": "tp"}, {"label": "period", "name": "per", "sigma": ".00016144", "units": "d", "title": "sidereal orbital period", "value": "382.504994695381"}, {"label": "n", "units": "deg/d", "value": ".9411641808408189", "title": "mean motion", "sigma": "3.9722E-7", "name": "n"}, {"label": "Q", "name": "ad", "sigma": "3.1688E-7", "units": "au", "value": "1.126235630276023", "title": "aphelion distance"}], "epoch": "2461200.5"}